OBJECT_NAME,OBJECT_ID,EPOCH,MEAN_MOTION,ECCENTRICITY,INCLINATION,RA_OF_ASC_NODE,ARG_OF_PERICENTER,MEAN_ANOMALY,EPHEMERIS_TYPE,CLASSIFICATION_TYPE,NORAD_CAT_ID,ELEMENT_SET_NO,REV_AT_EPOCH,BSTAR,MEAN_MOTION_DOT,MEAN_MOTION_DDOT
IRIDIUM 156,2018-061H,2026-07-14T02:49:42.486240,14.34217529,.0002083,86.3936,45.4637,91.9176,268.2258,0,U,43576,999,41723,.12143E-4,.54E-6,0
IRIDIUM 164,2018-061J,2026-07-14T02:22:18.626016,14.34218064,.0002323,86.3938,45.5128,89.3076,270.8386,0,U,43577,999,41727,.48373E-4,.155E-5,0
IRIDIUM 159,2018-061K,2026-07-14T01:36:38.450016,14.34217420,.0002141,86.3935,45.4623,85.0592,275.0848,0,U,43578,999,41723,.13715E-4,.58E-6,0
IRIDIUM 180,2019-002A,2026-07-13T22:14:59.005248,14.34218163,.0002193,86.3990,342.4190,90.8984,269.2463,0,U,43922,999,39282,.31854E-4,.109E-5,0
IRIDIUM 176,2019-002B,2026-07-13T22:31:15.428064,14.72248159,.0002338,86.6110,342.3539,89.9040,270.2445,0,U,43923,999,40318,.60192E-4,.404E-5,0
IRIDIUM 168,2019-002C,2026-07-13T22:05:50.845632,14.34216658,.0002111,86.3989,342.4996,91.9223,268.2215,0,U,43924,999,39280,-.31319E-4,-.68E-6,0
IRIDIUM 173,2019-002D,2026-07-13T21:47:34.950624,14.34216653,.0002021,86.3988,342.3932,91.8103,268.3324,0,U,43925,999,39278,-.34846E-4,-.78E-6,0
IRIDIUM 169,2019-002E,2026-07-14T00:44:53.657376,14.38613098,.0001848,86.4220,13.9667,102.1820,257.9585,0,U,43926,999,39408,.32833E-5,.3E-6,0
IRIDIUM 172,2019-002F,2026-07-13T23:18:55.001088,14.34217540,.000217,86.3986,342.3740,90.1759,269.9685,0,U,43927,999,39280,.41581E-5,.31E-6,0
IRIDIUM 175,2019-002G,2026-07-14T04:04:38.121024,14.43626906,.0005275,86.4512,279.2428,117.2257,242.9482,0,U,43928,999,40287,.47254E-4,.18E-5,0
IRIDIUM 171,2019-002H,2026-07-13T22:51:30.968064,14.34217535,.0002213,86.3997,342.6911,94.8618,265.2830,0,U,43929,999,39279,.44636E-5,.32E-6,0
IRIDIUM 170,2019-002J,2026-07-13T22:40:08.554080,14.72248728,.0002277,86.6109,342.3535,86.3158,273.8320,0,U,43930,999,40319,.60217E-4,.404E-5,0
IRIDIUM 167,2019-002K,2026-07-13T22:42:22.950144,14.34217700,.0002267,86.3990,342.4073,98.8571,261.2881,0,U,43931,999,39279,.7801E-5,.42E-6,0
IRIDIUM 181,2023-068S,2026-07-14T01:48:50.520672,14.43311961,.0002412,86.4476,45.5463,83.7838,276.3637,0,U,56726,999,16631,.48986E-4,.185E-5,0
IRIDIUM 177,2023-068T,2026-07-13T19:47:43.234080,14.80029271,.000214,86.1985,316.1443,94.4975,265.6490,0,U,56727,999,17030,.70959E-4,.563E-5,0
IRIDIUM 174,2023-068U,2026-07-13T22:22:14.098368,14.72257302,.0002006,86.6118,342.5088,86.6388,273.5059,0,U,56728,999,16995,.62279E-4,.417E-5,0
IRIDIUM 178,2023-068V,2026-07-14T00:23:57.094656,14.80025847,.0002317,86.6535,14.1459,90.6138,269.5349,0,U,56729,999,17033,.20788E-4,.183E-5,0
IRIDIUM 179,2023-068W,2026-07-14T00:16:14.833056,14.80033413,.0002309,86.6766,23.2070,93.6642,266.4844,0,U,56730,999,17033,.27934E-4,.238E-5,0
